ONEWEB-0012             
1 44057U 19010A   21045.00001157  .00036861  00000-0  88908-1 0  9995
2 44057  87.9136 286.0759 0001570  81.3818  66.4985 13.21788480  1725
ONEWEB-0010             
1 44058U 19010B   21045.00001157  .00036905  00000-0  89008-1 0  9997
2 44058  87.9138 286.0824 0001681  88.4896  51.6549 13.21792632  1702
ONEWEB-0008             
1 44059U 19010C   21045.00001157  .00036769  00000-0  88678-1 0  9998
2 44059  87.9143 286.0907 0001593  82.7639  72.7660 13.21795072  1737
ONEWEB-0007             
1 44060U 19010D   21045.00001157  .00036935  00000-0  89080-1 0  9993
2 44060  87.9136 286.0777 0001722  76.8164  55.9997 13.21792405  1730
ONEWEB-0006             
1 44061U 19010E   21045.00001157  .00036921  00000-0  89052-1 0  9998
2 44061  87.9141 286.0900 0001634  83.1837  42.3513 13.21788224  1711
ONEWEB-0011             
1 44062U 19010F   21045.00001157  .00036890  00000-0  88979-1 0  9991
2 44062  87.9145 286.1007 0001420  72.1519  45.9565 13.21787907  1716
ONEWEB-0013             
1 45131U 20008A   21045.58334491  .00006345  00000-0  18403-1 0  9998
2 45131  87.9076  79.0992 0001683 111.3311 290.5239 13.09339713 51823
ONEWEB-0017             
1 45132U 20008B   21045.58334491 -.00014968  00000-0 -42977-1 0  9994
2 45132  87.8772  63.6638 0001811  76.9019 272.6071 13.10382771 53524
ONEWEB-0020             
1 45133U 20008C   21045.58334491 -.00018392  00000-0 -52818-1 0  9995
2 45133  87.8794  63.6511 0001703  81.4595  55.0659 13.10386541 53927
ONEWEB-0021             
1 45134U 20008D   21045.58334491 -.00015793  00000-0 -45347-1 0  9997
2 45134  87.8688  63.6985 0001851 100.9090 322.0230 13.10386300 54326
ONEWEB-0022             
1 45135U 20008E   21045.58334491 -.00016000  00000-0 -45947-1 0  9996
2 45135  87.8772  63.6457 0001987  75.3329 230.0953 13.10376372 53906
ONEWEB-0023             
1 45136U 20008F   21045.58334491 -.00014779  00000-0 -42435-1 0  9997
2 45136  87.8692  63.7278 0001254 118.9950 245.1921 13.10381531 53647
ONEWEB-0024             
1 45137U 20008G   21045.58334491 -.00018503  00000-0 -53131-1 0  9992
2 45137  87.8740  63.7127 0001672 102.1031  41.7454 13.10393313 53804
ONEWEB-0025             
1 45138U 20008H   21045.58334491 -.00015528  00000-0 -44586-1 0  9991
2 45138  87.8774  63.7289 0001624  95.1396 320.3979 13.10387080 54121
ONEWEB-0026             
1 45139U 20008J   21045.58334491  .00000015  00000-0  00000+0 0  9996
2 45139  87.8694  48.5779 0022294  36.3112 254.0811 13.63734716 56554
ONEWEB-0028             
1 45140U 20008K   21045.58334491 -.00017110  00000-0 -49130-1 0  9993
2 45140  87.8790  63.6743 0001634  99.9561 359.7225 13.10387846 53290
ONEWEB-0032             
1 45141U 20008L   21045.58334491 -.00014931  00000-0 -42874-1 0  9990
2 45141  87.8746  63.7465 0001902  95.7489 246.3870 13.10377608 53961
ONEWEB-0033             
1 45142U 20008M   21045.58334491 -.00017364  00000-0 -49858-1 0  9993
2 45142  87.8764  63.6892 0001853  93.3750  13.6447 13.10393428 53913
ONEWEB-0035             
1 45143U 20008N   21045.58334491 -.00015710  00000-0 -45114-1 0  9998
2 45143  87.8719  63.6846 0001746  92.2030 220.5660 13.10379315 53637
ONEWEB-0036             
1 45144U 20008P   21045.58334491 -.00014948  00000-0 -42923-1 0  9996
2 45144  87.8771  63.6388 0001499  98.4175 258.4323 13.10379720 54031
ONEWEB-0038             
1 45145U 20008Q   21045.58334491  .00000015  00000-0  00000+0 0  9993
2 45145  87.8473  48.4963 0024186  79.2402 325.9463 13.59395541 55644
ONEWEB-0039             
1 45146U 20008R   21045.58334491 -.00016568  00000-0 -47572-1 0  9993
2 45146  87.8786  63.6773 0002227 110.8016 334.1381 13.10388970 53751
ONEWEB-0040             
1 45147U 20008S   21045.58334491 -.00017839  00000-0 -51223-1 0  9994
2 45147  87.8791  63.7231 0001911 103.7603  17.9926 13.10392853 53453
ONEWEB-0041             
1 45148U 20008T   21045.58334491  .00000015  00000-0  00000+0 0  9996
2 45148  87.8921  48.6216 0019038  56.0696  67.6598 13.61822529 56257
ONEWEB-0043             
1 45149U 20008U   21045.58334491 -.00017623  00000-0 -50603-1 0  9998
2 45149  87.8694  63.6892 0001792 117.7793 356.5792 13.10389985 53760
ONEWEB-0044             
1 45150U 20008V   21045.58334491 -.00015137  00000-0 -43467-1 0  9998
2 45150  87.8676  63.7007 0001937 108.1700 226.6225 13.10376611 54057
ONEWEB-0045             
1 45151U 20008W   21045.58334491  .00000015  00000-0  00000+0 0  9990
2 45151  87.9764  48.5508 0019255  80.2703 283.6708 13.66061383 55686
ONEWEB-0047             
1 45152U 20008X   21045.58334491 -.00014840  00000-0 -42612-1 0  9991
2 45152  87.8652  63.6981 0001762  96.6465 274.8993 13.10381352 53793
ONEWEB-0048             
1 45153U 20008Y   21045.58334491 -.00015081  00000-0 -43304-1 0  9999
2 45153  87.8645  63.6895 0001570 100.2966 293.2276 13.10382164 53381
ONEWEB-0049             
1 45154U 20008Z   21045.58334491 -.00014988  00000-0 -43037-1 0  9998
2 45154  87.8770  63.6764 0001273  97.0809 289.1013 13.10381348 53628
ONEWEB-0051             
1 45155U 20008AA  21045.58334491  .00000015  00000-0  00000+0 0  9994
2 45155  87.8651  48.5875 0023293  41.6555 329.0164 13.64937605 56380
ONEWEB-0052             
1 45156U 20008AB  21045.58334491 -.00015247  00000-0 -43781-1 0  9995
2 45156  87.8770  63.6739 0000803 134.3845 266.5115 13.10383637 53507
ONEWEB-0053             
1 45157U 20008AC  21045.58334491 -.00018132  00000-0 -52067-1 0  9999
2 45157  87.8794  63.6792 0001872 105.5710  23.4839 13.10392102 53477
ONEWEB-0054             
1 45158U 20008AD  21045.58334491 -.00015498  00000-0 -44503-1 0  9998
2 45158  87.8768  63.6870 0002064  93.4956 226.6491 13.10377925 53597
ONEWEB-0056             
1 45159U 20008AE  21045.58334491 -.00015408  00000-0 -44238-1 0  9995
2 45159  87.8780  63.6794 0001570  95.1114 313.0893 13.10388297 53741
ONEWEB-0057             
1 45160U 20008AF  21045.58334491 -.00014964  00000-0 -42967-1 0  9990
2 45160  87.8777  63.6463 0001836 106.2318 272.6574 13.10383157 53642
ONEWEB-0058             
1 45161U 20008AG  21045.58334491 -.00016332  00000-0 -46891-1 0  9992
2 45161  87.8792  63.6630 0002022  99.1330 338.5488 13.10394234 53978
ONEWEB-0059             
1 45162U 20008AH  21045.58334491 -.00016822  00000-0 -48300-1 0  9994
2 45162  87.8703  63.6897 0002043  97.5824 354.7994 13.10391440 53876
ONEWEB-0062             
1 45163U 20008AJ  21045.58334491 -.00015333  00000-0 -44028-1 0  9994
2 45163  87.8746  63.6749 0001483 100.4659 226.9880 13.10379591 53740
ONEWEB-0065             
1 45164U 20008AK  21045.58334491 -.00016013  00000-0 -45979-1 0  9997
2 45164  87.8700  63.7088 0001774  92.9059 337.3341 13.10386171 53437
ONEWEB-0066             
1 45424U 20020A   21045.25001157 -.00009219  00000-0 -26072-1 0  9997
2 45424  87.8857  48.5368 0002906  96.2734  75.0303 13.11420476 47240
ONEWEB-0067             
1 45425U 20020B   21045.25001157 -.00008603  00000-0 -24333-1 0  9992
2 45425  87.8841  48.5536 0001950  96.0898 244.2768 13.11411460 47303
ONEWEB-0080             
1 45426U 20020C   21045.25001157 -.00010270  00000-0 -29045-1 0  9991
2 45426  87.8857  48.5293 0002226  80.4647 171.6784 13.11420033 47270
ONEWEB-0090             
1 45427U 20020D   21045.25001157 -.00009861  00000-0 -27888-1 0  9999
2 45427  87.8866  48.5423 0001835  92.7081 107.9354 13.11421410 47230
ONEWEB-0061             
1 45428U 20020E   21045.25001157 -.00008371  00000-0 -23678-1 0  9998
2 45428  87.8844  48.5190 0001902  88.7793 258.9215 13.11413299 47170
ONEWEB-0081             
1 45429U 20020F   21045.25001157 -.00008564  00000-0 -24219-1 0  9995
2 45429  87.8866  48.4677 0001977 101.0041  48.2318 13.11428625 47297
ONEWEB-0069             
1 45430U 20020G   21045.25001157 -.00009717  00000-0 -27480-1 0  9991
2 45430  87.8860  48.5407 0001839  93.2408 100.1005 13.11420692 47243
ONEWEB-0031             
1 45431U 20020H   21045.25001157 -.00010008  00000-0 -28304-1 0  9993
2 45431  87.8850  48.5442 0001667  93.8346 187.7347 13.11418312 47222
ONEWEB-0027             
1 45432U 20020J   21045.58334491 -.01475389  00000-0 -35569+0 0  9997
2 45432  87.6492  35.2273 0026191 180.5236 327.2193 14.56381462 49282
ONEWEB-0064             
1 45433U 20020K   21045.25001157 -.00009901  00000-0 -28000-1 0  9998
2 45433  87.8853  48.5491 0001713  96.5150 192.4180 13.11424548 47255
ONEWEB-0018             
1 45434U 20020L   21045.25001157 -.00009537  00000-0 -26972-1 0  9990
2 45434  87.8858  48.5265 0001795  91.2270  94.7369 13.11421813 47193
ONEWEB-0083             
1 45435U 20020M   21045.25001157 -.00010167  00000-0 -28751-1 0  9999
2 45435  87.8859  48.5328 0001679  94.8775 127.8722 13.11422662 47234
ONEWEB-0095             
1 45436U 20020N   21045.25001157 -.00010107  00000-0 -28585-1 0  9999
2 45436  87.8854  48.5365 0001762  92.6244 181.6445 13.11417079 47248
ONEWEB-0092             
1 45437U 20020P   21045.25001157 -.00008133  00000-0 -23005-1 0  9998
2 45437  87.8854  48.4707 0001092  80.8105 274.1341 13.11410650 47341
ONEWEB-0085             
1 45438U 20020Q   21045.25001157 -.00010312  00000-0 -29161-1 0  9990
2 45438  87.8859  48.5494 0001812  91.7588 153.0432 13.11423290 47235
ONEWEB-0096             
1 45439U 20020R   21045.25001157 -.00010089  00000-0 -28532-1 0  9993
2 45439  87.8858  48.5385 0001457  81.2668 134.1200 13.11421261 47231
ONEWEB-0037             
1 45440U 20020S   21045.25001157 -.00010218  00000-0 -28897-1 0  9993
2 45440  87.8852  48.5536 0000923  88.1209 178.7481 13.11419480 47256
ONEWEB-0042             
1 45441U 20020T   21045.25001157 -.00008988  00000-0 -25422-1 0  9996
2 45441  87.8845  48.5424 0001950  94.6277 230.9435 13.11412463 47235
ONEWEB-0098             
1 45442U 20020U   21045.25001157 -.00010263  00000-0 -29024-1 0  9998
2 45442  87.8854  48.5472 0002041  93.3145 166.1647 13.11420787 47199
ONEWEB-0055             
